{
    "links": {
        "self": "http://www.neowsapp.com/rest/v1/neo/3838029?api_key=iIulBulltgU6a56xZRHN4H3l9WmuAYTsLGpBGhQ2"
    },
    "id": "3838029",
    "neo_reference_id": "3838029",
    "name": "(2019 BC3)",
    "designation": "2019 BC3",
    "nasa_jpl_url": "http://ssd.jpl.nasa.gov/sbdb.cgi?sstr=3838029",
    "absolute_magnitude_h": 24.8,
    "estimated_diameter": {
        "kilometers": {
            "estimated_diameter_min": 0.0291443905,
            "estimated_diameter_max": 0.0651688382
        },
        "meters": {
            "estimated_diameter_min": 29.1443904535,
            "estimated_diameter_max": 65.1688382168
        },
        "miles": {
            "estimated_diameter_min": 0.018109479,
            "estimated_diameter_max": 0.0404940262
        },
        "feet": {
            "estimated_diameter_min": 95.6180819754,
            "estimated_diameter_max": 213.8085311752
        }
    },
    "is_potentially_hazardous_asteroid": false,
    "close_approach_data": [
        {
            "close_approach_date": "1948-01-07",
            "close_approach_date_full": "1948-Jan-07 19:28",
            "epoch_date_close_approach": -693721920000,
            "relative_velocity": {
                "kilometers_per_second": "25.8927161728",
                "kilometers_per_hour": "93213.7782220771",
                "miles_per_hour": "57919.4168069345"
            },
            "miss_distance": {
                "astronomical": "0.4626166858",
                "lunar": "179.9578907762",
                "kilometers": "69206470.822139246",
                "miles": "43002906.8975877548"
            },
            "orbiting_body": "Earth"
        },
        {
            "close_approach_date": "2017-06-24",
            "close_approach_date_full": "2017-Jun-24 14:37",
            "epoch_date_close_approach": 1498315020000,
            "relative_velocity": {
                "kilometers_per_second": "15.3940917376",
                "kilometers_per_hour": "55418.7302554608",
                "miles_per_hour": "34435.0438079001"
            },
            "miss_distance": {
                "astronomical": "0.1524149365",
                "lunar": "59.2894102985",
                "kilometers": "22800949.856585255",
                "miles": "14167853.268796319"
            },
            "orbiting_body": "Earth"
        },
        {
            "close_approach_date": "2019-01-31",
            "close_approach_date_full": "2019-Jan-31 17:59",
            "epoch_date_close_approach": 1548957540000,
            "relative_velocity": {
                "kilometers_per_second": "13.2193999527",
                "kilometers_per_hour": "47589.8398298111",
                "miles_per_hour": "29570.4757542512"
            },
            "miss_distance": {
                "astronomical": "0.0312170282",
                "lunar": "12.1434239698",
                "kilometers": "4670000.926449934",
                "miles": "2901804.0172557292"
            },
            "orbiting_body": "Earth"
        }
    ],
    "orbital_data": {
        "orbit_id": "3",
        "orbit_determination_date": "2019-08-08 05:55:34",
        "first_observation_date": "2019-01-13",
        "last_observation_date": "2019-01-29",
        "data_arc_in_days": 16,
        "observations_used": 36,
        "orbit_uncertainty": "8",
        "minimum_orbit_intersection": ".00747566",
        "jupiter_tisserand_invariant": "4.378",
        "epoch_osculation": "2458500.5",
        "eccentricity": ".4575498453995011",
        "semi_major_axis": "1.51862664668292",
        "inclination": "7.787516810532251",
        "ascending_node_longitude": "310.8062515679152",
        "orbital_period": "683.5573396153308",
        "perihelion_distance": ".8237792592735871",
        "perihelion_argument": "244.9584476688268",
        "aphelion_distance": "2.213474034092252",
        "perihelion_time": "2458560.166429084667",
        "mean_anomaly": "328.5762799612863",
        "mean_motion": ".5266566228410167",
        "equinox": "J2000",
        "orbit_class": {
            "orbit_class_type": "APO",
            "orbit_class_description": "Near-Earth asteroid orbits which cross the Earth’s orbit similar to that of 1862 Apollo",
            "orbit_class_range": "a (semi-major axis) > 1.0 AU; q (perihelion) < 1.017 AU"
        }
    },
    "is_sentry_object": false
}